[{"OBJECT_NAME":"STARLINK-3369","OBJECT_ID":"2022-005AQ","EPOCH":"2026-03-09T22:22:22.044576","MEAN_MOTION":15.18998951,"ECCENTRICITY":0.00032386,"INCLINATION":53.2137,"RA_OF_ASC_NODE":280.745,"ARG_OF_PERICENTER":175.5204,"MEAN_ANOMALY":184.5822,"EPHEMERIS_TYPE":0,"CLASSIFICATION_TYPE":"U","NORAD_CAT_ID":51142,"ELEMENT_SET_NO":999,"REV_AT_EPOCH":22901,"BSTAR":0.0020382455,"MEAN_MOTION_DOT":0.00043116,"MEAN_MOTION_DDOT":0},{"OBJECT_NAME":"YAOGAN-39 01B","OBJECT_ID":"2023-130B","EPOCH":"2026-03-09T22:52:09.575040","MEAN_MOTION":15.17346461,"ECCENTRICITY":0.00021598,"INCLINATION":34.9951,"RA_OF_ASC_NODE":50.5935,"ARG_OF_PERICENTER":223.3635,"MEAN_ANOMALY":136.6908,"EPHEMERIS_TYPE":0,"CLASSIFICATION_TYPE":"U","NORAD_CAT_ID":57728,"ELEMENT_SET_NO":999,"REV_AT_EPOCH":14040,"BSTAR":0.00040482695,"MEAN_MOTION_DOT":8.241e-5,"MEAN_MOTION_DDOT":0}]
